#dP2023  5 17  0  0  0.00000000      96 __u+U ITR00 EXT  IAC
## 2262 259200.00000000   900.00000000 60081 0.0000000000000
+  118   C06C07C08C09C10C11C12C13C14C16C19C20C21C22C23C24C25
+        C26C27C28C29C30C32C33C34C35C36C37C38C39C40C41C42C43
+        C44C45C46E02E04E05E07E08E09E10E11E12E13E14E15E18E19
+        E21E24E25E26E27E30E31E33E34E36G01G02G03G04G05G06G07
+        G08G09G10G11G12G13G14G15G16G17G18G19G20G21G22G23G24
+        G25G26G27G28G29G30G31G32J02J03J04R01R02R03R04R05R07
+        R08R09R11R12R13R14R15R16R17R18R19R20R21R22R24R25  0
++        11  8  9 11  7  9  8  9 10 10  7  8 10  7  8  8  9
++         8  9  7  7  9  8  8  7  7  7  7  9 10 10  7  9  8
++        10  9  9  7  7  8  7  8  6  7  7  7  7  7  9  7  8
++         7  8  7  7  8  7  8  7  7  7  7  7  7  7  7  7  7
++         7  6  7  7  7  6  7  8  8  7  7  6  7  6  6  7  8
++         7  8  6  7  7  7  7  7  9  8 10  8  7  8  7  8  7
++         7  8  7  9  9  7 10  9  8  8  7  9  7  7  9  8  0
%c M  cc GPS ccc cccc cccc cccc cccc ccccc ccccc ccccc ccccc
%c cc cc ccc ccc cccc cccc cccc cccc ccccc ccccc ccccc ccccc
%f  0.0000000  0.000000000  0.00000000000  0.000000000000000
%f  0.0000000  0.000000000  0.00000000000  0.000000000000000
%i    0    0    0    0      0      0      0      0         0
%i    0    0    0    0      0      0      0      0         0
/* IAC                                ULTRA-RAPID PREDICTION
/* S/V CLOCKS ARE ALIGNED TO GNSS TIME                      
/* G:C1WC2W R:C1PC2P E:C1XC5X C:C2IC6I J:C1CC2S             
/* PCV:IGS20_2247 OL/AL:FES2004  NONE     YN ORB:CoN CLK:CoN
*  2023 05 17  3 15  0.00000000
PC06  -2105.937412  36789.859175 -20219.633203   -190.485251
PC07 -12153.870771  25889.351555  30988.906273    -30.250082
PC08 -18359.981806  35720.153170 -13134.427211    483.656165
PC09   4335.090935  40034.959424 -11091.602441    645.024409
PC10  -1932.850456  27336.312733  32330.753112    -60.379302
PC11  12120.550873  24913.154908   3486.943083    623.377926
PC12  -2052.646610  20549.388709  18801.184932    644.563319
PC13 -11974.831281  35842.664223 -18820.014805    276.268474
PC14  10973.284256  14136.671661 -21408.459306    270.605318
PC16  -4331.828853  34671.227328 -23151.931721     75.868296
PC19 -20177.059023 -10187.670799  16375.723645   -911.042021
PC20  -1806.626585 -15631.274359  23061.802383    563.266663
PC21 -19147.306410  12024.038971 -16316.517089   -915.281719
PC22 -27852.310988   1398.593305   -154.734836   -484.815573
PC23  18667.791220  -4173.083741  20325.297965   -930.614696
PC24  -5443.741083  25616.375039   9660.092937    -45.775188
PC25  10417.975830  14153.378301  21672.988905    128.083949
PC26 -15950.604426  21980.930880  -6503.973724   -121.366332
PC27   9061.520171 -14502.533694 -22078.660381    141.314618
PC28  18693.720843   2979.916558 -20505.123059    104.573194
PC29 -18561.802001 -19995.719098   5861.026585    121.404382
PC30  -6329.377809 -24352.658983 -12103.412668     -0.298050
PC32  19138.656017 -12175.253991  16287.378742   -561.306779
PC33  20221.820359  10091.963610 -16377.603407   -882.554107
PC34   7355.469728  24569.625374  10955.198488    172.373701
PC35 -19106.124409  -3062.420006  20107.133901    626.085286
PC36  -9572.298887 -15037.606175 -21445.551648   -437.327270
PC37  16912.046734 -20851.669564   7589.917374   -784.215011
PC38 -22276.723097  35579.240345  -4650.177612     78.870897
PC39  -6640.445786  31321.655028 -27275.912586     -2.952417
PC40 -16767.207242  19408.381543  33401.338422    -23.412171
PC41  27887.071129  -1129.760000   -428.316765   -942.935196
PC42    307.827059  15737.842303 -22994.718126   -688.770604
PC43  18233.656383  20491.417474  -5085.746325     21.773291
PC44  -8788.064905  14701.509694  22007.823077    108.975434
PC45 -18683.785098   4738.255882 -20184.746586    -98.521903
PC46   4284.943255 -25245.367220 -11051.182121    -54.586389
PE02   2194.504337  17568.983451  23718.138068     38.575681
PE04 -26237.426040 -13648.500783  -1163.378856   -123.976346
PE05  -6854.557180  15634.110468 -24171.682478    -66.759545
PE07  23520.855850  -1356.514309  17938.862922    -45.626127
PE08  26192.214419  13776.374025    908.341784    -84.219633
PE09 -23543.576857   1159.624170 -17883.797050    -17.337126
PE10 -15974.814717  -2702.942088  24760.243943   -534.276919
PE11 -15073.202145   9692.160810  23539.249060   1946.933928
PE12 -14433.213153 -13631.305850  21954.821853   -541.770620
PE13  15157.054116  -8862.551402 -23835.393774    -19.183137
PE14  20838.447123  20458.462350   5861.841390    227.309413
PE15  14301.134107  13937.204088 -21846.577685    -22.346691
PE18  -8922.753313 -21183.238759 -14295.942341     72.782447
PE19 -11376.121899 -20643.300098  17918.944103  -2516.535477
PE21  16447.044594 -20564.151696 -13523.385167   -529.538900
PE24 -26801.312925  11204.197466  -5754.007155   -102.961851
PE25 -16733.459404  20513.716998  13246.673698   -605.182435
PE26   6804.179813 -26580.020554 -11114.754980    106.445127
PE27  26659.260338 -11822.435011   5052.105864    -51.343697
PE30  20693.104506   4345.119485  20699.736056   -179.071348
PE31 -21064.585064  -3779.810764 -20444.799992   -523.906119
PE33  -5003.816832 -28336.242205   6970.346766   -444.362272
PE34   5158.848568  28264.893265  -7133.607528    -45.815997
PE36  -7130.621734  26164.410874  11844.437393    -57.231444
PG01 -13171.438815  11969.953556  19255.022740    184.792667
PG02 -12195.858183 -17819.867405  16259.362438   -595.439995
PG03 -23037.431054  13068.977012   -749.916828   -301.034588
PG04 -16793.875270   5481.870196 -19854.506850     43.420925
PG05  22356.790292  -1805.101721 -14491.628306   -127.483439
PG06   5560.295886  23995.722644  -9746.282805    587.975097
PG07  -6646.220424  23893.283840  -8341.719616    176.370944
PG08 -23661.699856  -4169.918699  11671.876596   -122.781884
PG09  -6866.593085  13765.086557 -21720.833076   -157.175864
PG10   -469.429661 -16045.437141  21277.499539    -37.232798
PG11  12760.239358  12347.142746 -19758.385264   -199.648867
PG12  24496.708926  -9970.756878   1582.868546   -376.956049
PG13  22494.547198  12631.919087   6576.849970    521.009845
PG14  -3097.752515  17419.041710  19776.263922     59.441307
PG15  23861.010402   1095.472299  11428.542895     40.232383
PG16 -20948.383316  -3388.580489 -16552.419153   -500.347149
PG17   7700.994895  19365.790577  16832.587203    715.072206
PG18   5026.619459 -25361.589750  -5715.219624   -269.407929
PG19  15433.954782  19701.998207   9102.181577    317.912962
PG20  16886.315851   4828.231388 -19835.660579    433.175648
PG21 -15341.310199   1887.393509  22119.474939    153.780767
PG22 -17471.756987 -18972.070997   7135.078165    482.581263
PG23  12008.446271 -18516.717853  14669.929398     24.834378
PG24  14633.109967  -7615.107158  20384.338621   -191.450660
PG25  18263.480168 -17209.023304  -8596.068295    443.352542
PG26 -11378.289173 -11393.589837 -21269.139008    240.697836
PG27 -23333.674610 -13054.201191   1388.497949     35.913382
PG28  -5668.870472 -24754.792442  -7812.440935     78.191730
PG29  10584.055531 -10669.347858 -21961.023435   -599.688787
PG30    600.995499  26334.627233   2062.489108   -516.752190
PG31 -10987.586785 -17431.121188 -16692.754623   -216.256299
PG32 -11464.061810 -19041.277658  14869.569542   -478.320412
PJ02 -30123.136224  28562.614610  12226.398644     -0.002765
PJ03 -25879.580463  24936.056388  27118.704634      4.309993
PJ04 -32779.856051  20481.444727 -11614.601555     94.591707
PR01 -24482.727878    696.369188  -7089.199635     57.642822
PR02 -12073.511028   8143.751174 -20909.086542    -22.826580
PR03   7034.481147  11307.578666 -21693.187104     77.972337
PR04  21763.399449   8095.766379 -10514.716351    187.479365
PR05  24676.877084    623.364816   6405.630368    112.679354
PR07  -7962.190801 -11337.997270  21473.190468     56.059938
PR08 -21893.386608  -8013.179220  10445.529338    -70.815261
PR09  14513.975607 -20980.233465  -1415.954298    120.582774
PR11  -8541.342978  -6806.050197 -23040.965669    -57.588803
PR12 -17384.730803  10652.930633 -15311.793431     27.333143
PR13 -15468.067043  20277.233277   -500.589369    -35.111879
PR14  -3691.233916  18594.494653  17068.284472     24.683860
PR15   9432.828849   5841.884561  22988.300185     89.331330
PR16  17181.640202 -10563.922732  15648.673582     14.639194
PR17   7416.326862  24010.753889   4486.517636    630.640006
PR18  12942.577937  18387.560453 -11983.938700     81.900601
PR19  12135.922989   5106.165274 -21853.718696   -232.890846
PR20   3692.632405 -15780.358593 -19712.846021    -92.980594
PR21  -7996.698271 -24028.536311  -2966.290321     -8.038327
PR22 -12703.471748 -18123.962042  12718.111048     81.577919
PR24  -3184.477560  16505.624152  19200.057223    171.006450
PR25  -6155.427276 -24311.306070  -4615.588985     61.336163
EOF
